CTC2_L_00315016-03
1 34585U 24684OZ  26070.40846065  .00000000  00000+0  00000-0 0  9996
2 34585  50.0000 180.0000 0000000   0.0000   0.0000 13.69880518    11
CTC2_L_00315016-04
1 34586U 26677VJ  26070.40846065  .00000000  00000+0  00000-0 0  9991
2 34586  50.0000 180.0000 0000000   0.0000  90.0000 13.69880518    11
CTC2_L_00315017-01
1 34587U 22192PW  26070.40846065  .00000000  00000+0  00000-0 0  9990
2 34587  50.0000 192.0000 0000000   0.0000 192.0000 13.69880518    18
CTC2_L_00315017-02
1 34588U 26394WD  26070.40846065  .00000000  00000+0  00000-0 0  9999
2 34588  50.0000 192.0000 0000000   0.0000 282.0000 13.69880518    19
CTC2_L_00315017-03
1 34589U 24817RD  26070.40846065  .00000000  00000+0  00000-0 0  9998
2 34589  50.0000 192.0000 0000000   0.0000  12.0000 13.69880518    11
CTC2_L_00315017-04
1 34590U 23573EH  26070.40846065  .00000000  00000+0  00000-0 0  9998
2 34590  50.0000 192.0000 0000000   0.0000 102.0000 13.69880518    13
CTC2_L_00315018-01
1 34591U 23947KN  26070.40846065  .00000000  00000+0  00000-0 0  9994
2 34591  50.0000 204.0000 0000000   0.0000 204.0000 13.69880518    11
CTC2_L_00315018-02
1 34592U 25403PO  26070.40846065  .00000000  00000+0  00000-0 0  9994
2 34592  50.0000 204.0000 0000000   0.0000 294.0000 13.69880518    11
CTC2_L_00315018-03
1 34593U 22321WY  26070.40846065  .00000000  00000+0  00000-0 0  9991
2 34593  50.0000 204.0000 0000000   0.0000  24.0000 13.69880518    13
CTC2_L_00315018-04
1 34594U 23263SN  26070.40846065  .00000000  00000+0  00000-0 0  9998
2 34594  50.0000 204.0000 0000000   0.0000 114.0000 13.69880518    14
CTC2_L_00315019-01
1 34595U 23532QJ  26070.40846065  .00000000  00000+0  00000-0 0  9998
2 34595  50.0000 216.0000 0000000   0.0000 216.0000 13.69880518    11
CTC2_L_00315019-02
1 34596U 25961ZC  26070.40846065  .00000000  00000+0  00000-0 0  9997
2 34596  50.0000 216.0000 0000000   0.0000 306.0000 13.69880518    12
CTC2_L_00315019-03
1 34597U 23614EI  26070.40846065  .00000000  00000+0  00000-0 0  9991
2 34597  50.0000 216.0000 0000000   0.0000  36.0000 13.69880518    13
CTC2_L_00315019-04
1 34598U 22891NA  26070.40846065  .00000000  00000+0  00000-0 0  9998
2 34598  50.0000 216.0000 0000000   0.0000 126.0000 13.69880518    14
CTC2_L_00315020-01
1 34599U 24012GO  26070.40846065  .00000000  00000+0  00000-0 0  9996
2 34599  50.0000 228.0000 0000000   0.0000 228.0000 13.69880518    11
CTC2_L_00315020-02
1 34600U 26198V   26070.40846065  .00000000  00000+0  00000-0 0  9996
2 34600  50.0000 228.0000 0000000   0.0000 318.0000 13.69880518    14
CTC2_L_00315020-03
1 34601U 22495WN  26070.40846065  .00000000  00000+0  00000-0 0  9993
2 34601  50.0000 228.0000 0000000   0.0000  48.0000 13.69880518    15
CTC2_L_00315020-04
1 34602U 24675KC  26070.40846065  .00000000  00000+0  00000-0 0  9996
2 34602  50.0000 228.0000 0000000   0.0000 138.0000 13.69880518    16
CTC2_L_00315021-01
1 34603U 26642OV  26070.40846065  .00000000  00000+0  00000-0 0  9993
2 34603  50.0000 240.0000 0000000   0.0000 240.0000 13.69880518    15
CTC2_L_00315021-02
1 34604U 26552NS  26070.40846065  .00000000  00000+0  00000-0 0  9994
2 34604  50.0000 240.0000 0000000   0.0000 330.0000 13.69880518    16
CTC2_L_00315021-03
1 34605U 24657IT  26070.40846065  .00000000  00000+0  00000-0 0  9999
2 34605  50.0000 240.0000 0000000   0.0000  60.0000 13.69880518    17
CTC2_L_00315021-04
1 34606U 23035QZ  26070.40846065  .00000000  00000+0  00000-0 0  9999
2 34606  50.0000 240.0000 0000000   0.0000 150.0000 13.69880518    18
CTC2_L_00315022-01
1 34607U 23798TS  26070.40846065  .00000000  00000+0  00000-0 0  9996
2 34607  50.0000 252.0000 0000000   0.0000 252.0000 13.69880518    15
CTC2_L_00315022-02
1 34608U 24901LU  26070.40846065  .00000000  00000+0  00000-0 0  9994
2 34608  50.0000 252.0000 0000000   0.0000 342.0000 13.69880518    16
CTC2_L_00315022-03
1 34609U 25568IM  26070.40846065  .00000000  00000+0  00000-0 0  9995
2 34609  50.0000 252.0000 0000000   0.0000  72.0000 13.69880518    17
CTC2_L_00315022-04
1 34610U 25984NS  26070.40846065  .00000000  00000+0  00000-0 0  9999
2 34610  50.0000 252.0000 0000000   0.0000 162.0000 13.69880518    19
CTC2_L_00315023-01
1 34611U 24993JS  26070.40846065  .00000000  00000+0  00000-0 0  9999
2 34611  50.0000 264.0000 0000000   0.0000 264.0000 13.69880518    16
CTC2_L_00315023-02
1 34612U 25506UP  26070.40846065  .00000000  00000+0  00000-0 0  9991
2 34612  50.0000 264.0000 0000000   0.0000 354.0000 13.69880518    17
CTC2_L_00315023-03
1 34613U 22175CN  26070.40846065  .00000000  00000+0  00000-0 0  9991
2 34613  50.0000 264.0000 0000000   0.0000  84.0000 13.69880518    18
CTC2_L_00315023-04
1 34614U 25110PC  26070.40846065  .00000000  00000+0  00000-0 0  9994
2 34614  50.0000 264.0000 0000000   0.0000 174.0000 13.69880518    19
CTC2_L_00315024-01
1 34615U 25364KS  26070.40846065  .00000000  00000+0  00000-0 0  9996
2 34615  50.0000 276.0000 0000000   0.0000 276.0000 13.69880518    16
CTC2_L_00315024-02
1 34616U 23581OX  26070.40846065  .00000000  00000+0  00000-0 0  9996
2 34616  50.0000 276.0000 0000000   0.0000   6.0000 13.69880518    18
CTC2_L_00315024-03
1 34617U 22380ZG  26070.40846065  .00000000  00000+0  00000-0 0  9993
2 34617  50.0000 276.0000 0000000   0.0000  96.0000 13.69880518    18
CTC2_L_00315024-04
1 34618U 24901NP  26070.40846065  .00000000  00000+0  00000-0 0  9995
2 34618  50.0000 276.0000 0000000   0.0000 186.0000 13.69880518    19
CTC2_L_00315025-01
1 34619U 25784EA  26070.40846065  .00000000  00000+0  00000-0 0  9996
2 34619  50.0000 288.0000 0000000   0.0000 288.0000 13.69880518    16
CTC2_L_00315025-02
1 34620U 24986QC  26070.40846065  .00000000  00000+0  00000-0 0  9991
2 34620  50.0000 288.0000 0000000   0.0000  18.0000 13.69880518    19
CTC2_L_00315025-03
1 34621U 24252TJ  26070.40846065  .00000000  00000+0  00000-0 0  9998
2 34621  50.0000 288.0000 0000000   0.0000 108.0000 13.69880518    10
CTC2_L_00315025-04
1 34622U 25736NR  26070.40846065  .00000000  00000+0  00000-0 0  9997
2 34622  50.0000 288.0000 0000000   0.0000 198.0000 13.69880518    10
CTC2_L_00315026-01
1 34623U 25292QL  26070.40846065  .00000000  00000+0  00000-0 0  9995
2 34623  50.0000 300.0000 0000000   0.0000 300.0000 13.69880518    11
CTC2_L_00315026-02
1 34624U 23948DN  26070.40846065  .00000000  00000+0  00000-0 0  9992
2 34624  50.0000 300.0000 0000000   0.0000  30.0000 13.69880518    12
CTC2_L_00315026-03
1 34625U 26837BN  26070.40846065  .00000000  00000+0  00000-0 0  9993
2 34625  50.0000 300.0000 0000000   0.0000 120.0000 13.69880518    13
CTC2_L_00315026-04
1 34626U 22841X   26070.40846065  .00000000  00000+0  00000-0 0  9995
2 34626  50.0000 300.0000 0000000   0.0000 210.0000 13.69880518    14
CTC2_L_00315027-01
1 34627U 26097HE  26070.40846065  .00000000  00000+0  00000-0 0  9993
2 34627  50.0000 312.0000 0000000   0.0000 312.0000 13.69880518    11
CTC2_L_00315027-02
1 34628U 26956AF  26070.40846065  .00000000  00000+0  00000-0 0  9998
2 34628  50.0000 312.0000 0000000   0.0000  42.0000 13.69880518    12
CTC2_L_00315027-03
1 34629U 26461TT  26070.40846065  .00000000  00000+0  00000-0 0  9990
2 34629  50.0000 312.0000 0000000   0.0000 132.0000 13.69880518    13
CTC2_L_00315027-04
1 34630U 24811ZL  26070.40846065  .00000000  00000+0  00000-0 0  9999
2 34630  50.0000 312.0000 0000000   0.0000 222.0000 13.69880518    15
CTC2_L_00315028-01
1 34631U 25893NT  26070.40846065  .00000000  00000+0  00000-0 0  9991
2 34631  50.0000 324.0000 0000000   0.0000 324.0000 13.69880518    12
CTC2_L_00315028-02
1 34632U 23349NS  26070.40846065  .00000000  00000+0  00000-0 0  9996
2 34632  50.0000 324.0000 0000000   0.0000  54.0000 13.69880518    13
CTC2_L_00315028-03
1 34633U 22437PN  26070.40846065  .00000000  00000+0  00000-0 0  9994
2 34633  50.0000 324.0000 0000000   0.0000 144.0000 13.69880518    14
CTC2_L_00315028-04
1 34634U 26222MS  26070.40846065  .00000000  00000+0  00000-0 0  9991
2 34634  50.0000 324.0000 0000000   0.0000 234.0000 13.69880518    15
CTC2_L_00315029-01
1 34635U 24017VO  26070.40846065  .00000000  00000+0  00000-0 0  9992
2 34635  50.0000 336.0000 0000000   0.0000 336.0000 13.69880518    12
CTC2_L_00315029-02
1 34636U 25140NR  26070.40846065  .00000000  00000+0  00000-0 0  9991
2 34636  50.0000 336.0000 0000000   0.0000  66.0000 13.69880518    13
CTC2_L_00315029-03
1 34637U 26909RE  26070.40846065  .00000000  00000+0  00000-0 0  9996
2 34637  50.0000 336.0000 0000000   0.0000 156.0000 13.69880518    14
CTC2_L_00315029-04
1 34638U 24168QP  26070.40846065  .00000000  00000+0  00000-0 0  9992
2 34638  50.0000 336.0000 0000000   0.0000 246.0000 13.69880518    15
CTC2_L_00315030-01
1 34639U 24964DU  26070.40846065  .00000000  00000+0  00000-0 0  9997
2 34639  50.0000 348.0000 0000000   0.0000 348.0000 13.69880518    12
CTC2_L_00315030-02
1 34640U 26094LJ  26070.40846065  .00000000  00000+0  00000-0 0  9995
2 34640  50.0000 348.0000 0000000   0.0000  78.0000 13.69880518    14
CTC2_L_00315030-03
1 34641U 24312TF  26070.40846065  .00000000  00000+0  00000-0 0  9997
2 34641  50.0000 348.0000 0000000   0.0000 168.0000 13.69880518    15
CTC2_L_00315030-04
1 34642U 22881CN  26070.40846065  .00000000  00000+0  00000-0 0  9997
2 34642  50.0000 348.0000 0000000   0.0000 258.0000 13.69880518    16
